IRIDIUM 166             
1 43570U 18061B   24091.86396543  .00000516  00000+0  17703-3 0  9997
2 43570  86.4006  34.1106 0002522  83.4190 276.7293 14.34215262297684
IRIDIUM 158             
1 43571U 18061C   24091.90202049  .00000507  00000+0  17413-3 0  9998
2 43571  86.4004  34.1039 0002265  80.2245 279.9206 14.34217377297653
IRIDIUM 165             
1 43572U 18061D   24091.92738938  .00000264  00000+0  87254-4 0  9993
2 43572  86.4007  34.1241 0002299  80.4194 279.7261 14.34218991297689
IRIDIUM 155             
1 43573U 18061E   24091.88934187  .00000521  00000+0  17893-3 0  9990
2 43573  86.4002  34.0491 0002432  85.4011 274.7462 14.34212420297648
IRIDIUM 154             
1 43574U 18061F   24091.87029060  .00000515  00000+0  17680-3 0  9992
2 43574  86.4005  34.1510 0001973  86.4881 273.6540 14.34223843297691
IRIDIUM 163             
1 43575U 18061G   24091.92103336  .00000515  00000+0  17667-3 0  9993
2 43575  86.4004  34.0705 0002234  87.7464 272.3987 14.34221086297674
IRIDIUM 156             
1 43576U 18061H   24091.89567720  .00000612  00000+0  21130-3 0  9999
2 43576  86.4002  34.0873 0002331  82.5887 277.5574 14.34217711297667
IRIDIUM 164             
1 43577U 18061J   24091.87664738  .00000506  00000+0  17364-3 0  9991
2 43577  86.4004  34.1230 0002088  80.6712 279.4720 14.34215848297701
